IRIDIUM 119             
1 42959U 17061E   24153.58028896  .00000058  00000+0  13661-4 0  9998
2 42959  86.3963 336.8427 0001861  86.1978 273.9431 14.34214510347945
IRIDIUM 107             
1 42960U 17061F   24154.50630814  .00000138  00000+0  42367-4 0  9996
2 42960  86.3962 336.4722 0001860  92.5918 267.5490 14.34217720348091
IRIDIUM 132             
1 42961U 17061G   24153.53590381  .00000119  00000+0  35422-4 0  9996
2 42961  86.3960 336.8623 0001934  98.6564 261.4851 14.34213180347943
IRIDIUM 136             
1 42962U 17061H   24154.05599319  .00000139  00000+0  42458-4 0  9994
2 42962  86.3962 336.6484 0001951  81.4425 278.6992 14.34215966348035
IRIDIUM 139             
1 42963U 17061J   24153.78325254  .00000130  00000+0  39475-4 0  9995
2 42963  86.3964 336.8123 0001811  95.4971 264.6431 14.34216112348000
IRIDIUM 125             
1 42964U 17061K   24153.56126438  .00000128  00000+0  38513-4 0  9994
2 42964  86.3965 336.9527 0001705  83.5681 276.5709 14.34216798347985
IRIDIUM 135             
1 43070U 17083A   24153.81448044  .00000034  00000+0  49602-5 0  9993
2 43070  86.3955 273.4940 0002569  99.2127 260.9360 14.34219082337310
IRIDIUM 138             
1 43071U 17083B   24153.42124233  .00000400  00000+0  13578-3 0  9990
2 43071  86.3944 273.3773 0001993  86.7268 273.4156 14.34217706337244
